NORAD_CAT_ID,OBJECT_NAME,OBJECT_TYPE,EPOCH,MEAN_MOTION,ECCENTRICITY,INCLINATION,RA_OF_ASC_NODE,ARG_OF_PERICENTER,MEAN_ANOMALY,BSTAR,MEAN_MOTION_DOT,MEAN_MOTION_DDOT,TLE_LINE0,TLE_LINE1,TLE_LINE2,SEMIMAJOR_AXIS,PERIOD,APOGEE,PERIGEE,DECAYED
53592.0,STARLINK-4672,PAYLOAD,2022-12-11 20:26:04,15.08840782,0.0001493,53.2162,158.6955,75.5911,284.5247,-1.051e-05,-4.55e-06,0.0,0 STARLINK-4672,1 53592U 22104E   22345.85143617 -.00000455  00000-0 -10510-4 0  9991,2 53592  53.2162 158.6955 0001493  75.5911 284.5247 15.08840782 17226,6917.878000000002,95.438,540.776,538.71,0.0
53592.0,STARLINK-4672,PAYLOAD,2022-12-12 12:19:56,15.08831658,0.0001496999999999,53.2175,155.722,75.5329,284.5829,-9.9876e-05,-1.877e-05,0.0,0 STARLINK-4672,1 53592U 22104E   22346.51385054 -.00001877  00000-0 -99876-4 0  9999,2 53592  53.2175 155.7220 0001497  75.5329 284.5829 15.08831658 17329,6917.906,95.438,540.806,538.735,0.0
53592.0,STARLINK-4672,PAYLOAD,2022-12-12 20:16:53,15.08815297,0.0001592,53.2177,154.2356,73.4474,286.6693,-0.00020877,-3.607e-05,0.0,0 STARLINK-4672,1 53592U 22104E   22346.84506700 -.00003607  00000-0 -20877-3 0  9995,2 53592  53.2177 154.2356 0001592  73.4474 286.6693 15.08815297 17377,6917.956,95.439,540.922,538.72,0.0
53592.0,STARLINK-4672,PAYLOAD,2022-12-13 04:13:47,15.08837701,0.0001466,53.2177,152.7486,72.211,287.9042,1.3103e-05,-7.9e-07,0.0,0 STARLINK-4672,1 53592U 22104E   22347.17624890 -.00000079  00000-0  13103-4 0  9997,2 53592  53.2177 152.7486 0001466  72.2110 287.9042 15.08837701 16407,6917.887,95.438,540.7669999999998,538.738,0.0
53592.0,STARLINK-4672,PAYLOAD,2022-12-13 10:35:20,15.08836204,0.0001498,53.2174,151.559,70.9187,289.1968,4.8779e-05,4.88e-06,0.0,0 STARLINK-4672,1 53592U 22104E   22347.44121028  .00000488  00000-0  48779-4 0  9992,2 53592  53.2174 151.5590 0001498  70.9187 289.1968 15.08836204 17466,6917.892,95.438,540.793,538.721,0.0
53592.0,STARLINK-4672,PAYLOAD,2022-12-14 04:04:34,15.088436499999998,0.0001464,53.2172,148.2883,71.3499,288.7652,0.00014255,1.982e-05,0.0,0 STARLINK-4672,1 53592U 22104E   22348.16984435  .00001982  00000-0  14255-3 0  9992,2 53592  53.2172 148.2883 0001464  71.3499 288.7652 15.08843650 16553,6917.869000000002,95.437,540.747,538.721,0.0
53592.0,STARLINK-4672,PAYLOAD,2022-12-14 12:01:31,15.08786832,0.0001813,53.2171,146.8016,62.8455,297.2722,0.0010064,0.00015742,0.0,0 STARLINK-4672,1 53592U 22104E   22348.50105386  .00015742  00000-0  10064-2 0  9992,2 53592  53.2171 146.8016 0001813  62.8455 297.2722 15.08786832 17629,6918.043000000002,95.441,541.1619999999998,538.654,0.0
53592.0,STARLINK-4672,PAYLOAD,2022-12-14 16:47:40,15.08810634,0.0001718,53.2171,145.9095,62.2211,297.8955,0.0007856,0.00012227,0.0,0 STARLINK-4672,1 53592U 22104E   22348.69977204  .00012227  00000-0  78560-3 0  9999,2 53592  53.2171 145.9095 0001718  62.2211 297.8955 15.08810634 16636,6917.97,95.439,541.024,538.6469999999998,0.0
53592.0,STARLINK-4672,PAYLOAD,2022-12-15 03:55:21,15.08846824,0.000156,53.2169,143.8279,65.3167,294.7987,0.00012662,1.728e-05,0.0,0 STARLINK-4672,1 53592U 22104E   22349.16344534  .00001728  00000-0  12662-3 0  9991,2 53592  53.2169 143.8279 0001560  65.3167 294.7987 15.08846824 16702,6917.86,95.437,540.804,538.645,0.0
53592.0,STARLINK-4672,PAYLOAD,2022-12-15 10:16:53,15.08848108,0.00014,53.2168,142.6382,68.1408,291.9733,0.00014504,2.022e-05,0.0,0 STARLINK-4672,1 53592U 22104E   22349.42840244  .00002022  00000-0  14504-3 0  9994,2 53592  53.2168 142.6382 0001400  68.1408 291.9733 15.08848108 17767,6917.856,95.437,540.689,538.752,0.0
53592.0,STARLINK-4672,PAYLOAD,2022-12-15 19:49:12,15.08855597,0.000146,53.2174,140.8546,63.612,296.5022,0.00011647,1.567e-05,0.0,0 STARLINK-4672,1 53592U 22104E   22349.82583536  .00001567  00000-0  11647-3 0  9994,2 53592  53.2174 140.8546 0001460  63.6120 296.5022 15.08855597 17822,6917.833000000001,95.437,540.7080000000002,538.688,0.0
53592.0,STARLINK-4672,PAYLOAD,2022-12-16 13:18:26,15.08852135,0.000155,53.2168,137.5833,64.9706,295.1447,2.3442e-05,8.5e-07,0.0,0 STARLINK-4672,1 53592U 22104E   22350.55447586  .00000085  00000-0  23442-4 0  9991,2 53592  53.2168 137.5833 0001550  64.9706 295.1447 15.08852135 16911,6917.843000000003,95.437,540.781,538.636,0.0
53592.0,STARLINK-4672,PAYLOAD,2022-12-16 19:39:58,15.08854886,0.000158,53.2166,136.3952,60.5248,299.5902,-0.00025291,-4.313e-05,0.0,0 STARLINK-4672,1 53592U 22104E   22350.81943146 -.00004313  00000-0 -25291-3 0  9996,2 53592  53.2166 136.3952 0001580  60.5248 299.5902 15.08854886 17970,6917.835,95.437,540.793,538.607,0.0
53592.0,STARLINK-4672,PAYLOAD,2022-12-16 21:15:22,15.08847333,0.0001386999999999,53.2179,136.0962,55.7798,304.3326,-6.6541e-05,-1.347e-05,0.0,0 STARLINK-4672,1 53592U 22104E   22350.88567894 -.00001347  00000-0 -66541-4 0  9993,2 53592  53.2179 136.0962 0001387  55.7798 304.3326 15.08847333 16965,6917.858,95.437,540.682,538.763,0.0
53592.0,STARLINK-4672,PAYLOAD,2022-12-17 09:58:27,15.08847853,0.0001544,53.2176,133.7183,58.9812,301.1332,5.4796e-05,5.84e-06,0.0,0 STARLINK-4672,1 53592U 22104E   22351.41559443  .00000584  00000-0  54796-4 0  9993,2 53592  53.2176 133.7183 0001544  58.9812 301.1332 15.08847853 18060,6917.856,95.437,540.79,538.653,0.0
53592.0,STARLINK-4672,PAYLOAD,2022-12-17 16:19:59,15.08853057,0.0001584,53.2167,132.5285,60.1194,299.9956,0.00016563,2.35e-05,0.0,0 STARLINK-4672,1 53592U 22104E   22351.68055069  .00002350  00000-0  16563-3 0  9999,2 53592  53.2167 132.5285 0001584  60.1194 299.9956 15.08853057 17082,6917.84,95.437,540.8009999999998,538.61,0.0
53592.0,STARLINK-4672,PAYLOAD,2022-12-17 19:30:45,15.08851459,0.0001689,53.2175,131.9355,63.276,296.8405,0.00010926,1.452e-05,0.0,0 STARLINK-4672,1 53592U 22104E   22351.81303118  .00001452  00000-0  10926-3 0  9994,2 53592  53.2175 131.9355 0001689  63.2760 296.8405 15.08851459 18126,6917.845,95.437,540.879,538.5419999999998,0.0
53592.0,STARLINK-4672,PAYLOAD,2022-12-18 09:49:14,15.08839906,0.0001729,53.2161,129.2577,57.6775,302.4384,-2.1939e-05,-6.37e-06,0.0,0 STARLINK-4672,1 53592U 22104E   22352.40919658 -.00000637  00000-0 -21939-4 0  9995,2 53592  53.2161 129.2577 0001729  57.6775 302.4384 15.08839906 17194,6917.880999999999,95.438,540.942,538.55,0.0
53592.0,STARLINK-4672,PAYLOAD,2022-12-18 16:10:47,15.08833158,0.000149,53.2188,128.0704,58.8562,301.2576,-1.7165999999999998e-05,-5.61e-06,0.0,0 STARLINK-4672,1 53592U 22104E   22352.67416493 -.00000561  00000-0 -17166-4 0  9996,2 53592  53.2188 128.0704 0001490  58.8562 301.2576 15.08833158 17232,6917.901,95.438,540.797,538.736,0.0
53592.0,STARLINK-4672,PAYLOAD,2022-12-18 17:46:10,15.08833744,0.0001463,53.2181,127.7722,57.9652,302.1482,-7.670700000000001e-06,-4.1e-06,0.0,0 STARLINK-4672,1 53592U 22104E   22352.74040415 -.00000410  00000-0 -76707-5 0  9991,2 53592  53.2181 127.7722 0001463  57.9652 302.1482 15.08833744 18262,6917.9,95.438,540.7769999999998,538.752,0.0
53592.0,STARLINK-4672,PAYLOAD,2022-12-19 09:40:01,15.08844959,0.0001414,53.2173,124.7972,57.6645,302.4484,0.00012645,1.725e-05,0.0,0 STARLINK-4672,1 53592U 22104E   22353.40279679  .00001725  00000-0  12645-3 0  9998,2 53592  53.2173 124.7972 0001414  57.6645 302.4484 15.08844959 17345,6917.865,95.437,540.7080000000002,538.752,0.0
53592.0,STARLINK-4672,PAYLOAD,2022-12-19 19:12:20,15.08852536,0.0001545,53.2163,123.0139,54.6976,305.4161,0.00030848,4.627e-05,0.0,0 STARLINK-4672,1 53592U 22104E   22353.80023316  .00004627  00000-0  30848-3 0  9996,2 53592  53.2163 123.0139 0001545  54.6976 305.4161 15.08852536 18425,6917.842,95.437,540.776,538.638,0.0
53592.0,STARLINK-4672,PAYLOAD,2022-12-20 11:06:11,15.08848175,0.0001489,53.2163,120.0395,54.1838,305.9292,0.00024008,3.536e-05,0.0,0 STARLINK-4672,1 53592U 22104E   22354.46263205  .00003536  00000-0  24008-3 0  9991,2 53592  53.2163 120.0395 0001489  54.1838 305.9292 15.08848175 17507,6917.855,95.437,540.75,538.69,0.0
53592.0,STARLINK-4672,PAYLOAD,2022-12-21 12:32:21,15.08847141,0.0001519,53.2166,115.282,55.2462,304.8673,5.5919e-05,6.02e-06,0.0,0 STARLINK-4672,1 53592U 22104E   22355.52246869  .00000602  00000-0  55919-4 0  9993,2 53592  53.2166 115.2820 0001519  55.2462 304.8673 15.08847141 17668,6917.859,95.437,540.774,538.673,0.0
53592.0,STARLINK-4672,PAYLOAD,2022-12-22 01:15:26,15.08825841,7.31e-05,53.2169,112.9025,23.579,336.5236,-0.00034066,-5.703e-05,0.0,0 STARLINK-4672,1 53592U 22104E   22356.05239235 -.00005703  00000-0 -34066-3 0  9999,2 53592  53.2169 112.9025 0000731  23.5790 336.5236 15.08825841 17748,6917.924,95.438,540.294,539.283,0.0
53592.0,STARLINK-4672,PAYLOAD,2022-12-22 10:47:46,15.08822793,0.0001431,53.2172,111.119,56.5863,303.5266,-0.0002068,-3.576e-05,0.0,0 STARLINK-4672,1 53592U 22104E   22356.44984420 -.00003576  00000-0 -20680-3 0  9998,2 53592  53.2172 111.1190 0001431  56.5863 303.5266 15.08822793 18821,6917.933000000001,95.439,540.788,538.808,0.0
53592.0,STARLINK-4672,PAYLOAD,2022-12-22 13:58:32,15.08824228,0.0001371,53.2172,110.5241,55.8913,304.2209,-0.00016284,-2.877e-05,0.0,0 STARLINK-4672,1 53592U 22104E   22356.58232460 -.00002877  00000-0 -16284-3 0  9991,2 53592  53.2172 110.5241 0001371  55.8913 304.2209 15.08824228 18844,6917.929,95.439,540.742,538.845,0.0
53592.0,STARLINK-4672,PAYLOAD,2022-12-23 04:17:01,15.088304199999998,0.0001395,53.2171,107.8476,55.3135,304.7989,0.00015217,2.134e-05,0.0,0 STARLINK-4672,1 53592U 22104E   22357.17848802  .00002134  00000-0  15217-3 0  9999,2 53592  53.2171 107.8476 0001395  55.3135 304.7989 15.08830420 17917,6917.91,95.438,540.74,538.81,0.0
53592.0,STARLINK-4672,PAYLOAD,2022-12-23 13:49:20,15.08840969,0.0001373,53.217,106.0636,56.288,303.8243,0.00096176,0.00015052,0.0,0 STARLINK-4672,1 53592U 22104E   22357.57593190  .00015052  00000-0  96176-3 0  9996,2 53592  53.2170 106.0636 0001373  56.2880 303.8243 15.08840969 18999,6917.877,95.437,540.692,538.793,0.0
